SORCE                   
1 27651U 03004A   26068.43340162  .00003920  00000+0  29573-3 0  9995
2 27651  39.9899 110.5611 0015930  53.0009 307.2241 15.03094555256885
STARLINK-35220          
1 65661U 25211K   26068.70010870  .00002563  00000+0  18175-3 0  9990
2 65661  97.6021 114.0797 0000940 113.0996 247.0330 15.05653544 27042
